{
  "type": "FeatureCollection",
  "features": [
    {
      "type": "Feature",
      "properties": {
        "norad_id": 41948,
        "name": "CARTOSAT-2D",
        "group": "resource",
        "lat": 18.45721587814262,
        "lon": -120.49868996745684,
        "alt_km": 506.01528409392085,
        "timestamp": "2025-12-25T16:53:14.311437+00:00",
        "meta_object_name": "CARTOSAT-2D",
        "meta_object_id": "2017-008A",
        "meta_epoch": "2025-12-25T06:41:43.337184",
        "meta_mean_motion": 15.19189174,
        "meta_eccentricity": 0.00054642,
        "meta_inclination": 97.4369,
        "meta_ra_of_asc_node": 56.5845,
        "meta_arg_of_pericenter": 117.6949,
        "meta_mean_anomaly": 242.484,
        "meta_ephemeris_type": 0,
        "meta_classification_type": "U",
        "meta_norad_cat_id": 41948,
        "meta_element_set_no": 999,
        "meta_rev_at_epoch": 49117,
        "meta_bstar": 0.00026495083,
        "meta_mean_motion_dot": 5.509e-05,
        "meta_mean_motion_ddot": 0,
        "tle_line1": "1 41948U 17008A   25359.27897381  .00005509  00000+0  26495-3 0  9998",
        "tle_line2": "2 41948  97.4369  56.5845 0005464 117.6949 242.4840 15.19189174491177"
      },
      "geometry": {
        "type": "Point",
        "coordinates": [
          -120.49868996745684,
          18.45721587814262
        ]
      }
    },
    {
      "type": "Feature",
      "properties": {
        "norad_id": 42063,
        "name": "SENTINEL-2B",
        "group": "resource",
        "lat": -37.37461436806259,
        "lon": 78.58126737940725,
        "alt_km": 795.8747023290989,
        "timestamp": "2025-12-25T16:53:14.311448+00:00",
        "meta_object_name": "SENTINEL-2B",
        "meta_object_id": "2017-013A",
        "meta_epoch": "2025-12-25T06:59:38.466816",
        "meta_mean_motion": 14.30815216,
        "meta_eccentricity": 0.00011792,
        "meta_inclination": 98.5698,
        "meta_ra_of_asc_node": 71.5607,
        "meta_arg_of_pericenter": 91.5448,
        "meta_mean_anomaly": 268.587,
        "meta_ephemeris_type": 0,
        "meta_classification_type": "U",
        "meta_norad_cat_id": 42063,
        "meta_element_set_no": 999,
        "meta_rev_at_epoch": 45977,
        "meta_bstar": 1.4225472e-05,
        "meta_mean_motion_dot": -6e-08,
        "meta_mean_motion_ddot": 0,
        "tle_line1": "1 42063U 17013A   25359.29141744 -.00000006  00000+0  14225-4 0  9997",
        "tle_line2": "2 42063  98.5698  71.5607 0001179  91.5448 268.5870 14.30815216459776"
      },
      "geometry": {
        "type": "Point",
        "coordinates": [
          78.58126737940725,
          -37.37461436806259
        ]
      }
    },
    {
      "type": "Feature",
      "properties": {
        "norad_id": 42767,
        "name": "CARTOSAT-2E",
        "group": "resource",
        "lat": 69.1047232935622,
        "lon": 37.063654516324654,
        "alt_km": 501.95326056605154,
        "timestamp": "2025-12-25T16:53:14.311458+00:00",
        "meta_object_name": "CARTOSAT-2E",
        "meta_object_id": "2017-036C",
        "meta_epoch": "2025-12-25T07:05:36.925728",
        "meta_mean_motion": 15.19195587,
        "meta_eccentricity": 0.00026042,
        "meta_inclination": 97.4537,
        "meta_ra_of_asc_node": 56.7168,
        "meta_arg_of_pericenter": 174.1514,
        "meta_mean_anomaly": 185.9752,
        "meta_ephemeris_type": 0,
        "meta_classification_type": "U",
        "meta_norad_cat_id": 42767,
        "meta_element_set_no": 999,
        "meta_rev_at_epoch": 47174,
        "meta_bstar": 0.00019390954,
        "meta_mean_motion_dot": 4.012e-05,
        "meta_mean_motion_ddot": 0,
        "tle_line1": "1 42767U 17036C   25359.29556627  .00004012  00000+0  19391-3 0  9991",
        "tle_line2": "2 42767  97.4537  56.7168 0002604 174.1514 185.9752 15.19195587471742"
      },
      "geometry": {
        "type": "Point",
        "coordinates": [
          37.063654516324654,
          69.1047232935622
        ]
      }
    },
    {
      "type": "Feature",
      "properties": {
        "norad_id": 42920,
        "name": "FORMOSAT-5",
        "group": "resource",
        "lat": 3.0449448744784164,
        "lon": -105.79689678543866,
        "alt_km": 724.5429341910385,
        "timestamp": "2025-12-25T16:53:14.311469+00:00",
        "meta_object_name": "FORMOSAT-5",
        "meta_object_id": "2017-049A",
        "meta_epoch": "2025-12-25T06:08:32.216352",
        "meta_mean_motion": 14.50767576,
        "meta_eccentricity": 0.0009843,
        "meta_inclination": 98.2438,
        "meta_ra_of_asc_node": 73.3227,
        "meta_arg_of_pericenter": 258.6501,
        "meta_mean_anomaly": 101.3589,
        "meta_ephemeris_type": 0,
        "meta_classification_type": "U",
        "meta_norad_cat_id": 42920,
        "meta_element_set_no": 999,
        "meta_rev_at_epoch": 44145,
        "meta_bstar": 7.0790052e-05,
        "meta_mean_motion_dot": 2.35e-06,
        "meta_mean_motion_ddot": 0,
        "tle_line1": "1 42920U 17049A   25359.25592843  .00000235  00000+0  70790-4 0  9996",
        "tle_line2": "2 42920  98.2438  73.3227 0009843 258.6501 101.3589 14.50767576441451"
      },
      "geometry": {
        "type": "Point",
        "coordinates": [
          -105.79689678543866,
          3.0449448744784164
        ]
      }
    },
    {
      "type": "Feature",
      "properties": {
        "norad_id": 42969,
        "name": "SENTINEL-5P",
        "group": "resource",
        "lat": -13.50849262985133,
        "lon": 116.04592114193176,
        "alt_km": 831.6463743518225,
        "timestamp": "2025-12-25T16:53:14.311479+00:00",
        "meta_object_name": "SENTINEL-5P",
        "meta_object_id": "2017-064A",
        "meta_epoch": "2025-12-25T07:31:12.487872",
        "meta_mean_motion": 14.19520573,
        "meta_eccentricity": 0.00010621,
        "meta_inclination": 98.7802,
        "meta_ra_of_asc_node": 297.7869,
        "meta_arg_of_pericenter": 91.1215,
        "meta_mean_anomaly": 269.0083,
        "meta_ephemeris_type": 0,
        "meta_classification_type": "U",
        "meta_norad_cat_id": 42969,
        "meta_element_set_no": 999,
        "meta_rev_at_epoch": 42489,
        "meta_bstar": 6.5755276e-05,
        "meta_mean_motion_dot": 9.4e-07,
        "meta_mean_motion_ddot": 0,
        "tle_line1": "1 42969U 17064A   25359.31333898  .00000094  00000+0  65755-4 0  9994",
        "tle_line2": "2 42969  98.7802 297.7869 0001062  91.1215 269.0083 14.19520573424894"
      },
      "geometry": {
        "type": "Point",
        "coordinates": [
          116.04592114193176,
          -13.50849262985133
        ]
      }
    },
    {
      "type": "Feature",
      "properties": {
        "norad_id": 42987,
        "name": "SKYSAT-C11",
        "group": "resource",
        "lat": 19.558187239604695,
        "lon": -39.82719778188584,
        "alt_km": 422.52519228962683,
        "timestamp": "2025-12-25T16:53:14.311490+00:00",
        "meta_object_name": "SKYSAT-C11",
        "meta_object_id": "2017-068A",
        "meta_epoch": "2025-12-24T21:34:50.650176",
        "meta_mean_motion": 15.4796518,
        "meta_eccentricity": 0.0001116,
        "meta_inclination": 97.4153,
        "meta_ra_of_asc_node": 136.6958,
        "meta_arg_of_pericenter": 96.4287,
        "meta_mean_anomaly": 263.709,
        "meta_ephemeris_type": 0,
        "meta_classification_type": "U",
        "meta_norad_cat_id": 42987,
        "meta_element_set_no": 999,
        "meta_rev_at_epoch": 45619,
        "meta_bstar": 0.00045752,
        "meta_mean_motion_dot": 0.00023827,
        "meta_mean_motion_ddot": 0,
        "tle_line1": "1 42987U 17068A   25358.89919734  .00023827  00000+0  45752-3 0  9992",
        "tle_line2": "2 42987  97.4153 136.6958 0001116  96.4287 263.7090 15.47965180456192"
      },
      "geometry": {
        "type": "Point",
        "coordinates": [
          -39.82719778188584,
          19.558187239604695
        ]
      }
    },
    {
      "type": "Feature",
      "properties": {
        "norad_id": 42988,
        "name": "SKYSAT-C10",
        "group": "resource",
        "lat": -55.22886042158656,
        "lon": -60.238153073631295,
        "alt_km": 479.493478213245,
        "timestamp": "2025-12-25T16:53:14.311500+00:00",
        "meta_object_name": "SKYSAT-C10",
        "meta_object_id": "2017-068B",
        "meta_epoch": "2025-12-24T19:29:00.783168",
        "meta_mean_motion": 15.32071049,
        "meta_eccentricity": 0.00043105,
        "meta_inclination": 97.4272,
        "meta_ra_of_asc_node": 129.6977,
        "meta_arg_of_pericenter": 75.127,
        "meta_mean_anomaly": 285.0448,
        "meta_ephemeris_type": 0,
        "meta_classification_type": "U",
        "meta_norad_cat_id": 42988,
        "meta_element_set_no": 999,
        "meta_rev_at_epoch": 45564,
        "meta_bstar": 0.00040464637,
        "meta_mean_motion_dot": 0.00012461,
        "meta_mean_motion_ddot": 0,
        "tle_line1": "1 42988U 17068B   25358.81181462  .00012461  00000+0  40465-3 0  9992",
        "tle_line2": "2 42988  97.4272 129.6977 0004310  75.1270 285.0448 15.32071049455642"
      },
      "geometry": {
        "type": "Point",
        "coordinates": [
          -60.238153073631295,
          -55.22886042158656
        ]
      }
    }
  ]
}